QIANFAN-103             
1 66045U 25233N   26065.23536772  .00000027  00000+0  23042-4 0  9993
2 66045  88.9938  53.5983 0001920  91.6064 268.5308 13.51006158 19281
QIANFAN-104             
1 66046U 25233P   26065.23926531  .00000033  00000+0  32708-4 0  9996
2 66046  88.9943  53.4954 0002090  85.7508 274.3882 13.51010254 19331
QIANFAN-105             
1 66047U 25233Q   26065.24744659  .00000033  00000+0  33037-4 0  9993
2 66047  88.9956  53.3239 0002056  92.2964 267.8422 13.50981497 19446
QIANFAN-106             
1 66048U 25233R   26065.24354998  .00000032  00000+0  31234-4 0  9993
2 66048  88.9924  53.5695 0002382  85.6144 274.5280 13.51005206 19294
QIANFAN-107             
1 66049U 25233S   26065.25181019  .00000027  00000+0  23731-4 0  9994
2 66049  88.9940  53.5848 0001947  90.7251 269.4123 13.51003219 19296
QIANFAN-108             
1 66050U 25233T   26065.25591386  .00000025  00000+0  20659-4 0  9992
2 66050  88.9933  53.5794 0002341  85.2477 274.8941 13.51004724 19298
