[{"OBJECT_NAME":"QIANFAN-103","OBJECT_ID":"2025-233N","EPOCH":"2026-03-06T05:38:55.771008","MEAN_MOTION":13.51006158,"ECCENTRICITY":0.00019201,"INCLINATION":88.9938,"RA_OF_ASC_NODE":53.5983,"ARG_OF_PERICENTER":91.6064,"MEAN_ANOMALY":268.5308,"EPHEMERIS_TYPE":0,"CLASSIFICATION_TYPE":"U","NORAD_CAT_ID":66045,"ELEMENT_SET_NO":999,"REV_AT_EPOCH":1928,"BSTAR":2.3042382e-5,"MEAN_MOTION_DOT":2.7e-7,"MEAN_MOTION_DDOT":0},{"OBJECT_NAME":"QIANFAN-104","OBJECT_ID":"2025-233P","EPOCH":"2026-03-06T05:44:32.522784","MEAN_MOTION":13.51010254,"ECCENTRICITY":0.00020906,"INCLINATION":88.9943,"RA_OF_ASC_NODE":53.4954,"ARG_OF_PERICENTER":85.7508,"MEAN_ANOMALY":274.3882,"EPHEMERIS_TYPE":0,"CLASSIFICATION_TYPE":"U","NORAD_CAT_ID":66046,"ELEMENT_SET_NO":999,"REV_AT_EPOCH":1933,"BSTAR":3.2708006e-5,"MEAN_MOTION_DOT":3.3e-7,"MEAN_MOTION_DDOT":0},{"OBJECT_NAME":"QIANFAN-105","OBJECT_ID":"2025-233Q","EPOCH":"2026-03-06T05:56:19.385376","MEAN_MOTION":13.50981497,"ECCENTRICITY":0.00020564,"INCLINATION":88.9956,"RA_OF_ASC_NODE":53.3239,"ARG_OF_PERICENTER":92.2964,"MEAN_ANOMALY":267.8422,"EPHEMERIS_TYPE":0,"CLASSIFICATION_TYPE":"U","NORAD_CAT_ID":66047,"ELEMENT_SET_NO":999,"REV_AT_EPOCH":1944,"BSTAR":3.3036512e-5,"MEAN_MOTION_DOT":3.3e-7,"MEAN_MOTION_DDOT":0},{"OBJECT_NAME":"QIANFAN-106","OBJECT_ID":"2025-233R","EPOCH":"2026-03-06T05:50:42.718272","MEAN_MOTION":13.51005206,"ECCENTRICITY":0.00023826,"INCLINATION":88.9924,"RA_OF_ASC_NODE":53.5695,"ARG_OF_PERICENTER":85.6144,"MEAN_ANOMALY":274.528,"EPHEMERIS_TYPE":0,"CLASSIFICATION_TYPE":"U","NORAD_CAT_ID":66048,"ELEMENT_SET_NO":999,"REV_AT_EPOCH":1929,"BSTAR":3.1234189e-5,"MEAN_MOTION_DOT":3.2e-7,"MEAN_MOTION_DDOT":0},{"OBJECT_NAME":"QIANFAN-107","OBJECT_ID":"2025-233S","EPOCH":"2026-03-06T06:02:36.400416","MEAN_MOTION":13.51003219,"ECCENTRICITY":0.00019472,"INCLINATION":88.994,"RA_OF_ASC_NODE":53.5848,"ARG_OF_PERICENTER":90.7251,"MEAN_ANOMALY":269.4123,"EPHEMERIS_TYPE":0,"CLASSIFICATION_TYPE":"U","NORAD_CAT_ID":66049,"ELEMENT_SET_NO":999,"REV_AT_EPOCH":1929,"BSTAR":2.3731271e-5,"MEAN_MOTION_DOT":2.7e-7,"MEAN_MOTION_DDOT":0},{"OBJECT_NAME":"QIANFAN-108","OBJECT_ID":"2025-233T","EPOCH":"2026-03-06T06:08:30.957504","MEAN_MOTION":13.51004724,"ECCENTRICITY":0.00023416,"INCLINATION":88.9933,"RA_OF_ASC_NODE":53.5794,"ARG_OF_PERICENTER":85.2477,"MEAN_ANOMALY":274.8941,"EPHEMERIS_TYPE":0,"CLASSIFICATION_TYPE":"U","NORAD_CAT_ID":66050,"ELEMENT_SET_NO":999,"REV_AT_EPOCH":1929,"BSTAR":2.0659403e-5,"MEAN_MOTION_DOT":2.5e-7,"MEAN_MOTION_DDOT":0}]
